ONEWEB-0597             
1 54663U 22166X   26164.27575454  .00000031  00000+0  44023-4 0  9999
2 54663  87.9252 244.7658 0002045  95.3670 264.7698 13.21826826171028
ONEWEB-0600             
1 54664U 22166Y   26164.25723376  .00000072  00000+0  14389-3 0  9992
2 54664  87.9255 244.7608 0001887  96.2149 263.9200 13.21824661170991
ONEWEB-0601             
1 54665U 22166Z   26164.24883247  .00000104  00000+0  21985-3 0  9992
2 54665  87.9254 244.7786 0002157  92.7206 267.4175 13.21825973171183
ONEWEB-0602             
1 54666U 22166AA  26164.21434976 -.00000009  00000+0 -53395-4 0  9998
2 54666  87.9252 244.7913 0001786  94.0305 266.1033 13.21826211171024
ONEWEB-0603             
1 54667U 22166AB  26164.22024663  .00000030  00000+0  40376-4 0  9995
2 54667  87.9262 244.7467 0001993  95.9968 264.1393 13.21826526170952
ONEWEB-0604             
1 54668U 22166AC  26164.28415648  .00000022  00000+0  21328-4 0  9996
2 54668  87.9263 244.7499 0001997 101.3666 258.7693 13.21827665170924
ONEWEB-0605             
1 54669U 22166AD  26164.27744130  .00000065  00000+0  12520-3 0  9997
2 54669  87.9255 244.7648 0002575  91.7595 268.3834 13.21826766170990
ONEWEB-0606             
1 54670U 22166AE  26164.22360906  .00000046  00000+0  80299-4 0  9997
2 54670  87.9254 244.7879 0001994 104.2601 255.8755 13.21826579171041
ONEWEB-0607             
1 54671U 22166AF  26164.26564547  .00000023  00000+0  22997-4 0  9995
2 54671  87.9263 244.7504 0001958  94.5604 265.5754 13.21824158171027
ONEWEB-0608             
1 54672U 22166AG  26164.27237865  .00000081  00000+0  16417-3 0  9990
2 54672  87.9264 244.7456 0002361  88.0845 272.0560 13.21828160171035
ONEWEB-0610             
1 54673U 22166AH  26164.25218783  .00000072  00000+0  14295-3 0  9999
2 54673  87.9253 244.7643 0002189  82.6475 277.4908 13.21824854170938
ONEWEB-0611             
1 54674U 22166AJ  26164.24545400  .00000154  00000+0  34240-3 0  9991
2 54674  87.9252 244.7615 0002047 103.2288 256.9075 13.21828175170928
ONEWEB-0612             
1 54675U 22166AK  26164.25892813  .00000003  00000+0 -24851-4 0  9998
2 54675  87.9266 244.7541 0002104  94.9264 265.2110 13.21824994170913
ONEWEB-0615             
1 54676U 22166AL  26164.23874960  .00000060  00000+0  11357-3 0  9998
2 54676  87.9255 244.7728 0001850 105.1369 254.9970 13.21826628170923
ONEWEB-0655             
1 54677U 22166AM  26164.21519773  .00000044  00000+0  76018-4 0  9993
2 54677  87.9254 244.7789 0001845  94.0394 266.0951 13.21826883170913
ONEWEB-0659             
1 54678U 22166AN  26164.23201779  .00000045  00000+0  77829-4 0  9992
2 54678  87.9253 244.7752 0002086 101.6793 258.4575 13.21828225171009
ONEWEB-0685             
1 54679U 22166AP  26164.30786117  .00000068  00000+0  13410-3 0  9995
2 54679  87.9252 244.7526 0002066  88.7968 271.3403 13.21847732170901
ONEWEB-0712             
1 54680U 22166AQ  26164.18417529  .00000070  00000+0  14858-3 0  9991
2 54680  87.9102 229.5693 0001621  90.1458 269.9858 13.16594355171531
ONEWEB-0714             
1 54681U 22166AR  26164.23704627  .00000057  00000+0  10743-3 0  9990
2 54681  87.9253 244.7639 0001727  97.9487 262.1843 13.21823997171017
ONEWEB-0532             
1 55140U 23004A   26164.08466163  .00000508  00000+0  12751-2 0  9997
2 55140  87.9133   6.6818 0002392  89.6701 270.4704 13.17649893167047
ONEWEB-0533             
1 55141U 23004B   26164.26436691  .00000215  00000+0  56351-3 0  9991
2 55141  87.8944 351.4510 0001857  83.6898 276.4442 13.12444320167546
ONEWEB-0541             
1 55142U 23004C   26164.13857409  .00000549  00000+0  15125-2 0  9995
2 55142  87.8898  21.8635 0001849  90.4814 269.6526 13.11417811165411
ONEWEB-0543             
1 55143U 23004D   26164.21829184  .00000060  00000+0  11932-3 0  9995
2 55143  87.9158 336.2597 0001615  90.2294 269.9023 13.18684844169174
ONEWEB-0544             
1 55144U 23004E   26164.21155062  .00000031  00000+0  46381-4 0  9998
2 55144  87.9157 336.2608 0001713  97.3507 262.7820 13.18684909169179
ONEWEB-0560             
1 55145U 23004F   26163.97717785  .00000062  00000+0  12372-3 0  9993
2 55145  87.9158 336.2968 0001594  97.2614 262.8699 13.18686575169159
ONEWEB-0565             
1 55146U 23004G   26164.19806193  .00000028  00000+0  38789-4 0  9994
2 55146  87.9148 336.2810 0001995 104.3127 255.8227 13.18685233169170
ONEWEB-0567             
1 55147U 23004H   26164.19132136 -.00000003  00000+0 -41615-4 0  9991
2 55147  87.9158 336.2661 0001839 103.9561 256.1776 13.18685719169172
ONEWEB-0569             
1 55148U 23004J   26164.19924598  .00000300  00000+0  78643-3 0  9991
2 55148  87.8958 321.0135 0001433 125.4147 234.7116 13.13469023169653
ONEWEB-0570             
1 55149U 23004K   26164.18287790  .00000084  00000+0  17909-3 0  9994
2 55149  87.9157 336.2656 0002225  95.6139 264.5246 13.18685364169165
ONEWEB-0571             
1 55150U 23004L   26164.17614380  .00000063  00000+0  12752-3 0  9992
2 55150  87.9157 336.2662 0002059 129.5376 230.5938 13.18688792169179
