OBJECT_NAME,OBJECT_ID,EPOCH,MEAN_MOTION,ECCENTRICITY,INCLINATION,RA_OF_ASC_NODE,ARG_OF_PERICENTER,MEAN_ANOMALY,EPHEMERIS_TYPE,CLASSIFICATION_TYPE,NORAD_CAT_ID,ELEMENT_SET_NO,REV_AT_EPOCH,BSTAR,MEAN_MOTION_DOT,MEAN_MOTION_DDOT
ONEWEB-0597,2022-166X,2026-06-13T06:37:05.192256,13.21826826,.00020456,87.9252,244.7658,95.3670,264.7698,0,U,54663,999,17102,.44023465E-4,.31E-6,0
ONEWEB-0600,2022-166Y,2026-06-13T06:10:24.996864,13.21824661,.00018871,87.9255,244.7608,96.2149,263.9200,0,U,54664,999,17099,.14388618E-3,.72E-6,0
ONEWEB-0601,2022-166Z,2026-06-13T05:58:19.125408,13.21825973,.00021577,87.9254,244.7786,92.7206,267.4175,0,U,54665,999,17118,.21985066E-3,.104E-5,0
ONEWEB-0602,2022-166AA,2026-06-13T05:08:39.819264,13.21826211,.00017866,87.9252,244.7913,94.0305,266.1033,0,U,54666,999,17102,-.53394509E-4,-.9E-7,0
ONEWEB-0603,2022-166AB,2026-06-13T05:17:09.308832,13.21826526,.00019933,87.9262,244.7467,95.9968,264.1393,0,U,54667,999,17095,.4037552E-4,.3E-6,0
ONEWEB-0604,2022-166AC,2026-06-13T06:49:11.119872,13.21827665,.00019974,87.9263,244.7499,101.3666,258.7693,0,U,54668,999,17092,.21328121E-4,.22E-6,0
ONEWEB-0605,2022-166AD,2026-06-13T06:39:30.928320,13.21826766,.00025759,87.9255,244.7648,91.7595,268.3834,0,U,54669,999,17099,.12520062E-3,.65E-6,0
ONEWEB-0606,2022-166AE,2026-06-13T05:21:59.822784,13.21826579,.00019942,87.9254,244.7879,104.2601,255.8755,0,U,54670,999,17104,.80298575E-4,.46E-6,0
ONEWEB-0607,2022-166AF,2026-06-13T06:22:31.768608,13.21824158,.00019583,87.9263,244.7504,94.5604,265.5754,0,U,54671,999,17102,.22996533E-4,.23E-6,0
ONEWEB-0608,2022-166AG,2026-06-13T06:32:13.515360,13.21828160,.0002361,87.9264,244.7456,88.0845,272.0560,0,U,54672,999,17103,.16417395E-3,.81E-6,0
ONEWEB-0610,2022-166AH,2026-06-13T06:03:09.028512,13.21824854,.00021896,87.9253,244.7643,82.6475,277.4908,0,U,54673,999,17093,.14294507E-3,.72E-6,0
ONEWEB-0611,2022-166AJ,2026-06-13T05:53:27.225600,13.21828175,.00020479,87.9252,244.7615,103.2288,256.9075,0,U,54674,999,17092,.34239853E-3,.154E-5,0
ONEWEB-0612,2022-166AK,2026-06-13T06:12:51.390432,13.21824994,.00021048,87.9266,244.7541,94.9264,265.2110,0,U,54675,999,17091,-.2485122E-4,.3E-7,0
ONEWEB-0615,2022-166AL,2026-06-13T05:43:47.965440,13.21826628,.00018503,87.9255,244.7728,105.1369,254.9970,0,U,54676,999,17092,.11357291E-3,.6E-6,0
ONEWEB-0655,2022-166AM,2026-06-13T05:09:53.083872,13.21826883,.00018457,87.9254,244.7789,94.0394,266.0951,0,U,54677,999,17091,.76017729E-4,.44E-6,0
ONEWEB-0659,2022-166AN,2026-06-13T05:34:06.337056,13.21828225,.00020868,87.9253,244.7752,101.6793,258.4575,0,U,54678,999,17100,.77828602E-4,.45E-6,0
ONEWEB-0685,2022-166AP,2026-06-13T07:23:19.205088,13.21847732,.00020668,87.9252,244.7526,88.7968,271.3403,0,U,54679,999,17090,.13409824E-3,.68E-6,0
ONEWEB-0712,2022-166AQ,2026-06-13T04:25:12.745056,13.16594355,.00016216,87.9102,229.5693,90.1458,269.9858,0,U,54680,999,17153,.14857737E-3,.7E-6,0
ONEWEB-0714,2022-166AR,2026-06-13T05:41:20.797728,13.21823997,.00017273,87.9253,244.7639,97.9487,262.1843,0,U,54681,999,17101,.10743028E-3,.57E-6,0
ONEWEB-0532,2023-004A,2026-06-13T02:01:54.764832,13.17649893,.00023926,87.9133,6.6818,89.6701,270.4704,0,U,55140,999,16704,.12751346E-2,.508E-5,0
ONEWEB-0533,2023-004B,2026-06-13T06:20:41.301024,13.12444320,.00018577,87.8944,351.4510,83.6898,276.4442,0,U,55141,999,16754,.56350718E-3,.215E-5,0
ONEWEB-0541,2023-004C,2026-06-13T03:19:32.801376,13.11417811,.00018495,87.8898,21.8635,90.4814,269.6526,0,U,55142,999,16541,.15125432E-2,.549E-5,0
ONEWEB-0543,2023-004D,2026-06-13T05:14:20.414976,13.18684844,.00016154,87.9158,336.2597,90.2294,269.9023,0,U,55143,999,16917,.11931641E-3,.6E-6,0
ONEWEB-0544,2023-004E,2026-06-13T05:04:37.973568,13.18684909,.00017134,87.9157,336.2608,97.3507,262.7820,0,U,55144,999,16917,.46380683E-4,.31E-6,0
ONEWEB-0560,2023-004F,2026-06-12T23:27:08.166240,13.18686575,.00015946,87.9158,336.2968,97.2614,262.8699,0,U,55145,999,16915,.12372115E-3,.62E-6,0
ONEWEB-0565,2023-004G,2026-06-13T04:45:12.550752,13.18685233,.00019951,87.9148,336.2810,104.3127,255.8227,0,U,55146,999,16917,.38788688E-4,.28E-6,0
ONEWEB-0567,2023-004H,2026-06-13T04:35:30.165504,13.18685719,.00018393,87.9158,336.2661,103.9561,256.1776,0,U,55147,999,16917,-.41614948E-4,-.3E-7,0
ONEWEB-0569,2023-004J,2026-06-13T04:46:54.852672,13.13469023,.00014333,87.8958,321.0135,125.4147,234.7116,0,U,55148,999,16965,.78642776E-3,.3E-5,0
ONEWEB-0570,2023-004K,2026-06-13T04:23:20.650560,13.18685364,.00022251,87.9157,336.2656,95.6139,264.5246,0,U,55149,999,16916,.17909011E-3,.84E-6,0
ONEWEB-0571,2023-004L,2026-06-13T04:13:38.824320,13.18688792,.00020595,87.9157,336.2662,129.5376,230.5938,0,U,55150,999,16917,.12751712E-3,.63E-6,0
